{
  "norad_id": 58645,
  "name": "TIANMU-1 11",
  "history": [
    {
      "epoch": "2026-03-28T21:18:18.180288",
      "apogee_km": 492.2963938765988,
      "perigee_km": 482.49515928475194,
      "latitude_deg": 84.94948517308069,
      "longitude_deg": 129.72020032000728,
      "semi_major_axis_km": 6865.532776580675,
      "eccentricity": 0.0007138,
      "inclination_deg": 97.3526,
      "raan_deg": 110.7281,
      "arg_perigee_deg": 292.1265,
      "mean_anomaly_deg": 67.9216,
      "mean_motion_rev_day": 15.26129526
    },
    {
      "epoch": "2026-03-29T03:35:58.252992",
      "apogee_km": 492.27953276612607,
      "perigee_km": 482.48929922691605,
      "latitude_deg": -44.4687541848901,
      "longitude_deg": 154.89805887988769,
      "semi_major_axis_km": 6865.521415996521,
      "eccentricity": 0.000713,
      "inclination_deg": 97.3525,
      "raan_deg": 110.9862,
      "arg_perigee_deg": 290.9785,
      "mean_anomaly_deg": 69.069,
      "mean_motion_rev_day": 15.26133314
    }
  ]
}